OBJECT_NAME,OBJECT_ID,EPOCH,MEAN_MOTION,ECCENTRICITY,INCLINATION,RA_OF_ASC_NODE,ARG_OF_PERICENTER,MEAN_ANOMALY,EPHEMERIS_TYPE,CLASSIFICATION_TYPE,NORAD_CAT_ID,ELEMENT_SET_NO,REV_AT_EPOCH,BSTAR,MEAN_MOTION_DOT,MEAN_MOTION_DDOT
ONEWEB-0529,2022-138AJ,2026-06-17T21:07:21.796896,13.19724401,.00016658,87.9171,304.8360,103.1679,256.9640,0,U,54145,999,17691,.12697885E-3,.64E-6,0
ONEWEB-0531,2022-138AK,2026-06-18T12:30:05.664960,13.20772537,.0002852,87.9193,274.1692,102.3181,257.8271,0,U,54146,999,17948,.33694E-4,.27E-6,0
ONEWEB-0535,2022-138AL,2026-06-18T08:50:10.716576,13.19725599,.0002175,87.9180,304.7228,93.7443,266.3938,0,U,54147,999,17699,-.58394E-4,-.1E-6,0
ONEWEB-0536,2022-138AM,2026-06-18T13:59:46.718304,13.20771676,.0002975,87.9183,274.1790,105.5597,254.5865,0,U,54148,999,17948,-.32036E-4,0,0
ONEWEB-0527,2022-166A,2026-06-18T16:34:24.130848,13.21823243,.0002009,87.9252,243.6982,100.5338,259.6022,0,U,54642,999,17173,.98633E-5,.17E-6,0
ONEWEB-0528,2022-166B,2026-06-18T14:46:36.575040,13.21824276,.0001899,87.9254,243.7154,104.2523,255.8821,0,U,54643,999,17173,.82222E-4,.47E-6,0
ONEWEB-0539,2022-166C,2026-06-18T12:03:07.360128,13.21826780,.0001959,87.9261,243.7097,92.6716,267.4642,0,U,54644,999,17171,-.1046E-4,.9E-7,0
ONEWEB-0540,2022-166D,2026-06-18T10:24:00.074016,13.21827174,.0002027,87.9253,243.7536,94.9623,265.1743,0,U,54645,999,17169,-.86177E-4,-.23E-6,0
ONEWEB-0542,2022-166E,2026-06-18T14:06:38.778048,13.21825489,.0001955,87.9263,243.6912,89.6666,270.4692,0,U,54646,999,17172,-.60258E-3,-.236E-5,0
ONEWEB-0545,2022-166F,2026-06-18T15:04:47.940096,13.21814853,.000204,87.9255,243.6953,76.8360,283.3001,0,U,54647,999,17169,.65566E-2,.2721E-4,0
ONEWEB-0580,2022-166G,2026-06-18T16:17:26.395872,13.21827221,.0002226,87.9253,243.6850,88.3292,271.8097,0,U,54648,999,17174,.12109E-4,.18E-6,0
ONEWEB-0582,2022-166H,2026-06-18T11:51:00.779328,13.21827018,.0002114,87.9254,243.7140,86.5690,273.5686,0,U,54649,999,17169,.78466E-6,.13E-6,0
ONEWEB-0583,2022-166J,2026-06-18T12:07:57.193248,13.21826921,.0002035,87.9254,243.7351,95.0025,265.1342,0,U,54650,999,17170,-.34799E-3,-.131E-5,0
ONEWEB-0584,2022-166K,2026-06-18T16:15:02.062944,13.21825759,.0002099,87.9248,243.6865,95.7252,264.4121,0,U,54651,999,17171,.854E-4,.48E-6,0
ONEWEB-0585,2022-166L,2026-06-18T14:59:57.300000,13.21826751,.0001997,87.9255,243.6841,103.5123,256.6234,0,U,54652,999,17171,.16085E-3,.79E-6,0
ONEWEB-0586,2022-166M,2026-06-18T11:41:18.668832,13.21824401,.000197,87.9256,243.7368,93.7665,266.3694,0,U,54653,999,17169,.95245E-4,.52E-6,0
ONEWEB-0587,2022-166N,2026-06-18T11:55:50.642688,13.21824582,.0002053,87.9266,243.7084,108.6246,251.5110,0,U,54654,999,17185,-.38666E-4,-.3E-7,0
ONEWEB-0589,2022-166P,2026-06-18T11:36:28.095264,13.21824509,.0002372,87.9251,243.7231,77.7532,282.3868,0,U,54655,999,17171,.25677E-3,.119E-5,0
ONEWEB-0590,2022-166Q,2026-06-18T15:50:36.872736,13.21827590,.0002496,87.9262,243.6785,99.0800,261.0617,0,U,54656,999,17172,-.12278E-4,.8E-7,0
ONEWEB-0591,2022-166R,2026-06-18T16:07:47.019072,13.21826228,.0002122,87.9254,243.6906,98.4001,261.7374,0,U,54657,999,17175,-.76299E-4,-.18E-6,0
ONEWEB-0592,2022-166S,2026-06-18T16:12:36.304416,13.21827645,.0002029,87.9263,243.6682,98.6320,261.5044,0,U,54658,999,17163,-.28743E-5,.12E-6,0
ONEWEB-0593,2022-166T,2026-06-18T14:55:05.326752,13.21824400,.0001905,87.9255,243.6906,95.1946,264.9405,0,U,54659,999,17173,.11619E-3,.61E-6,0
ONEWEB-0594,2022-166U,2026-06-18T11:46:10.043328,13.21827448,.0001941,87.9251,243.7329,103.1775,256.9575,0,U,54660,999,17173,-.64478E-4,-.14E-6,0
ONEWEB-0595,2022-166V,2026-06-18T14:50:14.642592,13.21827471,.0002136,87.9262,243.6884,105.0760,255.0611,0,U,54661,999,17172,.96463E-4,.53E-6,0
ONEWEB-0596,2022-166W,2026-06-18T16:02:55.775040,13.21827181,.0002073,87.9256,243.6894,101.1107,259.0260,0,U,54662,999,17173,-.11097E-3,-.33E-6,0
ONEWEB-0597,2022-166X,2026-06-18T04:42:16.047648,13.21826679,.00019935,87.9253,243.7867,94.9553,265.1808,0,U,54663,999,17167,-.14697001E-4,.7E-7,0
ONEWEB-0600,2022-166Y,2026-06-18T15:09:37.709280,13.21823913,.0001835,87.9252,243.6914,96.7293,263.4050,0,U,54664,999,17170,.32242E-4,.26E-6,0
ONEWEB-0601,2022-166Z,2026-06-18T14:57:31.308192,13.21826099,.000204,87.9249,243.7093,91.8077,268.3290,0,U,54665,999,17189,.11371E-3,.6E-6,0
ONEWEB-0602,2022-166AA,2026-06-18T15:56:51.975744,13.21826034,.0001754,87.9254,243.7071,95.8507,264.2826,0,U,54666,999,17174,-.16008E-3,-.53E-6,0
ONEWEB-0603,2022-166AB,2026-06-18T16:05:21.363360,13.21826876,.0001964,87.9263,243.6630,96.0760,264.0597,0,U,54667,999,17167,-.81439E-4,-.21E-6,0
